{
  "type": "FeatureCollection",
  "features": [
    {
      "type": "Feature",
      "properties": {
        "norad_id": 37693,
        "name": "FENGYUN 1C DEB",
        "group": "fengyun-1c-debris",
        "lat": 78.22740838457713,
        "lon": -59.08806841894862,
        "alt_km": 805.8518062187386,
        "timestamp": "2025-12-14T09:36:23.326361+00:00",
        "meta_object_name": "FENGYUN 1C DEB",
        "meta_object_id": "1999-025ELJ",
        "meta_epoch": "2025-12-11T12:02:22.115904",
        "meta_mean_motion": 14.0848115,
        "meta_eccentricity": 0.00724651,
        "meta_inclination": 98.6917,
        "meta_ra_of_asc_node": 345.3396,
        "meta_arg_of_pericenter": 78.2326,
        "meta_mean_anomaly": 74.226,
        "meta_ephemeris_type": 0,
        "meta_classification_type": "U",
        "meta_norad_cat_id": 37693,
        "meta_element_set_no": 999,
        "meta_rev_at_epoch": 62131,
        "meta_bstar": 0.00083988698,
        "meta_mean_motion_dot": 1.434e-05,
        "meta_mean_motion_ddot": 0,
        "tle_line1": "1 37693U 99025ELJ 25345.50164486  .00001434  00000+0  83989-3 0  9997",
        "tle_line2": "2 37693  98.6917 345.3396 0072465  78.2326  74.2260 14.08481150621311"
      },
      "geometry": {
        "type": "Point",
        "coordinates": [
          -59.08806841894862,
          78.22740838457713
        ]
      }
    },
    {
      "type": "Feature",
      "properties": {
        "norad_id": 37694,
        "name": "FENGYUN 1C DEB",
        "group": "fengyun-1c-debris",
        "lat": -41.55235725420684,
        "lon": -131.45928466825163,
        "alt_km": 915.2990563054473,
        "timestamp": "2025-12-14T09:36:23.326371+00:00",
        "meta_object_name": "FENGYUN 1C DEB",
        "meta_object_id": "1999-025ELK",
        "meta_epoch": "2025-12-13T00:55:31.373184",
        "meta_mean_motion": 14.16656158,
        "meta_eccentricity": 0.01474372,
        "meta_inclination": 98.1986,
        "meta_ra_of_asc_node": 54.6268,
        "meta_arg_of_pericenter": 92.6483,
        "meta_mean_anomaly": 27.3421,
        "meta_ephemeris_type": 0,
        "meta_classification_type": "U",
        "meta_norad_cat_id": 37694,
        "meta_element_set_no": 999,
        "meta_rev_at_epoch": 51708,
        "meta_bstar": 0.0023714374,
        "meta_mean_motion_dot": 5.231e-05,
        "meta_mean_motion_ddot": 0,
        "tle_line1": "1 37694U 99025ELK 25347.03855756  .00005231  00000+0  23714-2 0  9993",
        "tle_line2": "2 37694  98.1986  54.6268 0147437  92.6483  27.3421 14.16656158517084"
      },
      "geometry": {
        "type": "Point",
        "coordinates": [
          -131.45928466825163,
          -41.55235725420684
        ]
      }
    },
    {
      "type": "Feature",
      "properties": {
        "norad_id": 37695,
        "name": "FENGYUN 1C DEB",
        "group": "fengyun-1c-debris",
        "lat": 11.861166473088629,
        "lon": -146.79380516397111,
        "alt_km": 993.8508100202444,
        "timestamp": "2025-12-14T09:36:23.326381+00:00",
        "meta_object_name": "FENGYUN 1C DEB",
        "meta_object_id": "1999-025ELL",
        "meta_epoch": "2025-12-05T21:35:58.305696",
        "meta_mean_motion": 13.64964142,
        "meta_eccentricity": 0.04651514,
        "meta_inclination": 98.2113,
        "meta_ra_of_asc_node": 24.2422,
        "meta_arg_of_pericenter": 279.1549,
        "meta_mean_anomaly": 266.6228,
        "meta_ephemeris_type": 0,
        "meta_classification_type": "U",
        "meta_norad_cat_id": 37695,
        "meta_element_set_no": 999,
        "meta_rev_at_epoch": 89158,
        "meta_bstar": 0.001955193,
        "meta_mean_motion_dot": 3.282e-05,
        "meta_mean_motion_ddot": 0,
        "tle_line1": "1 37695U 99025ELL 25339.89998039  .00003282  00000+0  19552-2 0  9990",
        "tle_line2": "2 37695  98.2113  24.2422 0465151 279.1549 266.6228 13.64964142891584"
      },
      "geometry": {
        "type": "Point",
        "coordinates": [
          -146.79380516397111,
          11.861166473088629
        ]
      }
    },
    {
      "type": "Feature",
      "properties": {
        "norad_id": 37704,
        "name": "FENGYUN 1C DEB",
        "group": "fengyun-1c-debris",
        "lat": 6.431528420952913,
        "lon": 2.268488592430342,
        "alt_km": 822.6019054595217,
        "timestamp": "2025-12-14T09:36:23.326391+00:00",
        "meta_object_name": "FENGYUN 1C DEB",
        "meta_object_id": "1999-025ELV",
        "meta_epoch": "2025-12-10T18:58:47.253216",
        "meta_mean_motion": 13.70500661,
        "meta_eccentricity": 0.02401356,
        "meta_inclination": 98.3199,
        "meta_ra_of_asc_node": 178.1952,
        "meta_arg_of_pericenter": 184.1814,
        "meta_mean_anomaly": 190.5574,
        "meta_ephemeris_type": 0,
        "meta_classification_type": "U",
        "meta_norad_cat_id": 37704,
        "meta_element_set_no": 999,
        "meta_rev_at_epoch": 62338,
        "meta_bstar": 0.0019314833,
        "meta_mean_motion_dot": 2.062e-05,
        "meta_mean_motion_ddot": 0,
        "tle_line1": "1 37704U 99025ELV 25344.79082469  .00002062  00000+0  19315-2 0  9999",
        "tle_line2": "2 37704  98.3199 178.1952 0240135 184.1814 190.5574 13.70500661623389"
      },
      "geometry": {
        "type": "Point",
        "coordinates": [
          2.268488592430342,
          6.431528420952913
        ]
      }
    },
    {
      "type": "Feature",
      "properties": {
        "norad_id": 37707,
        "name": "FENGYUN 1C DEB",
        "group": "fengyun-1c-debris",
        "lat": 67.88414432702704,
        "lon": -33.59627996937409,
        "alt_km": 630.695977195619,
        "timestamp": "2025-12-14T09:36:23.326401+00:00",
        "meta_object_name": "FENGYUN 1C DEB",
        "meta_object_id": "1999-025ELY",
        "meta_epoch": "2025-12-10T18:43:33.805632",
        "meta_mean_motion": 14.56419788,
        "meta_eccentricity": 0.01436989,
        "meta_inclination": 100.2215,
        "meta_ra_of_asc_node": 348.3329,
        "meta_arg_of_pericenter": 31.5927,
        "meta_mean_anomaly": 147.6034,
        "meta_ephemeris_type": 0,
        "meta_classification_type": "U",
        "meta_norad_cat_id": 37707,
        "meta_element_set_no": 999,
        "meta_rev_at_epoch": 85537,
        "meta_bstar": 0.0011022748,
        "meta_mean_motion_dot": 5.562e-05,
        "meta_mean_motion_ddot": 0,
        "tle_line1": "1 37707U 99025ELY 25344.78025238  .00005562  00000+0  11023-2 0  9998",
        "tle_line2": "2 37707 100.2215 348.3329 0143698  31.5927 147.6034 14.56419788855373"
      },
      "geometry": {
        "type": "Point",
        "coordinates": [
          -33.59627996937409,
          67.88414432702704
        ]
      }
    },
    {
      "type": "Feature",
      "properties": {
        "norad_id": 37712,
        "name": "FENGYUN 1C DEB",
        "group": "fengyun-1c-debris",
        "lat": 20.97734424279667,
        "lon": -49.13338338990242,
        "alt_km": 825.898203200135,
        "timestamp": "2025-12-14T09:36:23.326412+00:00",
        "meta_object_name": "FENGYUN 1C DEB",
        "meta_object_id": "1999-025EMD",
        "meta_epoch": "2025-12-13T03:36:15.433632",
        "meta_mean_motion": 14.36430544,
        "meta_eccentricity": 0.00791937,
        "meta_inclination": 98.8182,
        "meta_ra_of_asc_node": 126.1751,
        "meta_arg_of_pericenter": 352.3974,
        "meta_mean_anomaly": 185.3639,
        "meta_ephemeris_type": 0,
        "meta_classification_type": "U",
        "meta_norad_cat_id": 37712,
        "meta_element_set_no": 999,
        "meta_rev_at_epoch": 63966,
        "meta_bstar": 0.00060059205,
        "meta_mean_motion_dot": 1.777e-05,
        "meta_mean_motion_ddot": 0,
        "tle_line1": "1 37712U 99025EMD 25347.15017863  .00001777  00000+0  60059-3 0  9991",
        "tle_line2": "2 37712  98.8182 126.1751 0079193 352.3974 185.3639 14.36430544639662"
      },
      "geometry": {
        "type": "Point",
        "coordinates": [
          -49.13338338990242,
          20.97734424279667
        ]
      }
    },
    {
      "type": "Feature",
      "properties": {
        "norad_id": 37714,
        "name": "FENGYUN 1C DEB",
        "group": "fengyun-1c-debris",
        "lat": 29.505668821720416,
        "lon": 95.05764451275468,
        "alt_km": 760.0937985564315,
        "timestamp": "2025-12-14T09:36:23.326422+00:00",
        "meta_object_name": "FENGYUN 1C DEB",
        "meta_object_id": "1999-025EMF",
        "meta_epoch": "2025-12-09T13:46:38.631072",
        "meta_mean_motion": 14.32176518,
        "meta_eccentricity": 0.0048599,
        "meta_inclination": 98.8929,
        "meta_ra_of_asc_node": 95.1946,
        "meta_arg_of_pericenter": 93.8012,
        "meta_mean_anomaly": 266.8729,
        "meta_ephemeris_type": 0,
        "meta_classification_type": "U",
        "meta_norad_cat_id": 37714,
        "meta_element_set_no": 999,
        "meta_rev_at_epoch": 57464,
        "meta_bstar": 0.0030577,
        "meta_mean_motion_dot": 8.305e-05,
        "meta_mean_motion_ddot": 0,
        "tle_line1": "1 37714U 99025EMF 25343.57405823  .00008305  00000+0  30577-2 0  9997",
        "tle_line2": "2 37714  98.8929  95.1946 0048599  93.8012 266.8729 14.32176518574645"
      },
      "geometry": {
        "type": "Point",
        "coordinates": [
          95.05764451275468,
          29.505668821720416
        ]
      }
    }
  ]
}